[{"OBJECT_NAME":"IRIDIUM 148","OBJECT_ID":"2018-030G","EPOCH":"2026-03-09T17:19:11.405856","MEAN_MOTION":14.34218043,"ECCENTRICITY":0.00021734,"INCLINATION":86.4007,"RA_OF_ASC_NODE":332.0603,"ARG_OF_PERICENTER":85.9806,"MEAN_ANOMALY":274.1638,"EPHEMERIS_TYPE":0,"CLASSIFICATION_TYPE":"U","NORAD_CAT_ID":43255,"ELEMENT_SET_NO":999,"REV_AT_EPOCH":41591,"BSTAR":1.8722771e-5,"MEAN_MOTION_DOT":7.2e-7,"MEAN_MOTION_DDOT":0},{"OBJECT_NAME":"FENGYUN 1C DEB","OBJECT_ID":"1999-025CSC","EPOCH":"2026-03-08T11:30:00.004608","MEAN_MOTION":14.21925498,"ECCENTRICITY":0.02591994,"INCLINATION":98.5977,"RA_OF_ASC_NODE":73.5627,"ARG_OF_PERICENTER":15.0466,"MEAN_ANOMALY":143.1734,"EPHEMERIS_TYPE":0,"CLASSIFICATION_TYPE":"U","NORAD_CAT_ID":32134,"ELEMENT_SET_NO":999,"REV_AT_EPOCH":96365,"BSTAR":0.0016328616,"MEAN_MOTION_DOT":5.03e-5,"MEAN_MOTION_DDOT":0}]
